NORAD_CAT_ID,OBJECT_NAME,OBJECT_TYPE,EPOCH,MEAN_MOTION,ECCENTRICITY,INCLINATION,RA_OF_ASC_NODE,ARG_OF_PERICENTER,MEAN_ANOMALY,BSTAR,MEAN_MOTION_DOT,MEAN_MOTION_DDOT,TLE_LINE0,TLE_LINE1,TLE_LINE2,SEMIMAJOR_AXIS,PERIOD,APOGEE,PERIGEE,DECAYED
51868.0,STARLINK-3578,PAYLOAD,2022-03-17 22:00:00,15.73242754,0.000121,53.2181,73.3316,64.6358,81.3959,0.00010102,0.00013606,0.0,0 STARLINK-3578,1 51868U 22022S   22076.91667824  .00013606  00000-0  10102-3 0  9999,2 51868  53.2181  73.3316 0001210  64.6358  81.3959 15.73242754  2938,6727.773,91.531,350.452,348.824,0.0
51868.0,STARLINK-3578,PAYLOAD,2022-03-18 14:00:01,15.73206338,0.0001296,53.2185,70.0338,55.9387,268.0467,-1.3054e-05,-2.452e-05,0.0,0 STARLINK-3578,1 51868U 22022S   22077.58334491 -.00002452  00000-0 -13054-4 0  9993,2 51868  53.2185  70.0338 0001296  55.9387 268.0467 15.73206338  3576,6727.877,91.533,350.61400000000015,348.87,0.0
51868.0,STARLINK-3578,PAYLOAD,2022-03-18 22:00:00,15.7321578,0.0001307,53.2189,68.3826,65.4724,347.4422,0.00015624,0.00021378,0.0,0 STARLINK-3578,1 51868U 22022S   22077.91667824  .00021378  00000-0  15624-3 0  9999,2 51868  53.2189  68.3826 0001307  65.4724 347.4422 15.73215780  3097,6727.85,91.532,350.595,348.836,0.0
51868.0,STARLINK-3578,PAYLOAD,2022-03-19 14:00:01,15.73207306,0.0001099,53.2172,65.0762,71.8165,158.7958,-4.4001e-05,-6.792e-05,0.0,0 STARLINK-3578,1 51868U 22022S   22078.58334491 -.00006792  00000-0 -44001-4 0  9991,2 51868  53.2172  65.0762 0001099  71.8165 158.7958 15.73207306  3733,6727.874,91.533,350.47900000000016,349.0,0.0
51868.0,STARLINK-3578,PAYLOAD,2022-03-19 22:00:01,15.73223653,0.0001157,53.2189,63.4341,68.4034,251.4404,5.0483e-06,8.9e-07,0.0,0 STARLINK-3578,1 51868U 22022S   22078.91668981  .00000089  00000-0  50483-5 0  9995,2 51868  53.2189  63.4341 0001157  68.4034 251.4404 15.73223653  3783,6727.828,91.532,350.471,348.914,0.0
51868.0,STARLINK-3578,PAYLOAD,2022-03-20 14:00:01,15.73224668,0.0001044,53.2193,60.1366,54.2361,83.4384,-0.00025218,-0.00035897,0.0,0 STARLINK-3578,1 51868U 22022S   22079.58334491 -.00035897  00000-0 -25218-3 0  9998,2 51868  53.2193  60.1366 0001044  54.2361  83.4384 15.73224668  3350,6727.825,91.532,350.392,348.987,0.0
51868.0,STARLINK-3578,PAYLOAD,2022-03-20 22:00:01,15.73183542,9.04e-05,53.2198,58.4857,63.1942,163.5081,0.00038641,0.0005392,0.0,0 STARLINK-3578,1 51868U 22022S   22079.91668981  .00053920  00000-0  38641-3 0  9998,2 51868  53.2198  58.4857 0000904  63.1942 163.5081 15.73183542  3414,6727.941999999999,91.534,350.415,349.199,0.0
51868.0,STARLINK-3578,PAYLOAD,2022-03-21 06:00:00,15.73232015,0.0001167,53.2199,56.8385,53.8215,261.7334,-0.0004446,-0.00062637,0.0,0 STARLINK-3578,1 51868U 22022S   22080.25001157 -.00062637  00000-0 -44460-3 0  9996,2 51868  53.2199  56.8385 0001167  53.8215 261.7334 15.73232015  3999,6727.804,91.531,350.454,348.884,0.0
51868.0,STARLINK-3578,PAYLOAD,2022-03-21 14:00:01,15.73219776,0.0001261,53.2195,55.1883,61.4791,343.0126,-0.00064835,-0.00090712,0.0,0 STARLINK-3578,1 51868U 22022S   22080.58334491 -.00090712  00000-0 -64835-3 0  9995,2 51868  53.2195  55.1883 0001261  61.4791 343.0126 15.73219776  3519,6727.839,91.532,350.552,348.855,0.0
51868.0,STARLINK-3578,PAYLOAD,2022-03-21 20:00:01,15.73123189,0.0001293,53.2193,53.9502,74.1793,307.0135,0.00060191,0.00084427,0.0,0 STARLINK-3578,1 51868U 22022S   22080.83334491  .00084427  00000-0  60191-3 0  9998,2 51868  53.2193  53.9502 0001293  74.1793 307.0135 15.73123189  4084,6728.114000000001,91.538,350.849,349.1090000000001,0.0
51868.0,STARLINK-3578,PAYLOAD,2022-03-21 22:00:00,15.73144902,0.0001353,53.2198,53.5381,76.078,57.323,0.00049199,0.00068831,0.0,0 STARLINK-3578,1 51868U 22022S   22080.91667824  .00068831  00000-0  49199-3 0  9992,2 51868  53.2198  53.5381 0001353  76.0780  57.3230 15.73144902  3574,6728.052,91.536,350.82800000000015,349.00699999999995,0.0
51868.0,STARLINK-3578,PAYLOAD,2022-03-22 14:00:01,15.73240223,0.000115,53.218,50.2405,66.187,245.0233,-0.00073982,-0.00103358,0.0,0 STARLINK-3578,1 51868U 22022S   22081.58334491 -.00103358  00000-0 -73982-3 0  9990,2 51868  53.2180  50.2405 0001150  66.1870 245.0233 15.73240223  4204,6727.78,91.531,350.4190000000001,348.872,0.0
51868.0,STARLINK-3578,PAYLOAD,2022-03-22 20:00:01,15.7314771,0.0001022,53.218,49.0022,70.9934,216.9321,0.00068985,0.00097102,0.0,0 STARLINK-3578,1 51868U 22022S   22081.83334491  .00097102  00000-0  68985-3 0  9992,2 51868  53.2180  49.0022 0001022  70.9934 216.9321 15.73147710  4243,6728.044,91.536,350.597,349.222,0.0
51868.0,STARLINK-3578,PAYLOAD,2022-03-22 22:00:01,15.73177506,0.0001078,53.2183,48.59,72.5747,327.6311,0.00046773,0.00065472,0.0,0 STARLINK-3578,1 51868U 22022S   22081.91668981  .00065472  00000-0  46773-3 0  9991,2 51868  53.2183  48.5900 0001078  72.5747 327.6311 15.73177506  3712,6727.959,91.534,350.55,349.099,0.0
51868.0,STARLINK-3578,PAYLOAD,2022-03-23 06:00:00,15.73210083,0.0001268,53.2183,46.9428,61.3045,67.7612,0.00024034,0.00033258,0.0,0 STARLINK-3578,1 51868U 22022S   22082.25001157  .00033258  00000-0  24034-3 0  9998,2 51868  53.2183  46.9428 0001268  61.3045  67.7612 15.73210083  4307,6727.866,91.533,350.585,348.87800000000016,0.0
51868.0,STARLINK-3578,PAYLOAD,2022-03-23 14:00:01,15.73253811,0.0001208,53.2179,45.2921,68.3158,149.7269,-0.00032524,-0.0004612,0.0,0 STARLINK-3578,1 51868U 22022S   22082.58334491 -.00046120  00000-0 -32524-3 0  9991,2 51868  53.2179  45.2921 0001208  68.3158 149.7269 15.73253811  3717,6727.7419999999975,91.53,350.4190000000001,348.7940000000001,0.0
51868.0,STARLINK-3578,PAYLOAD,2022-03-23 20:00:01,15.73225508,0.0001153,53.2179,44.054,78.205,116.5641,-0.00010328,-0.00015104,0.0,0 STARLINK-3578,1 51868U 22022S   22082.83334491 -.00015104  00000-0 -10328-3 0  9995,2 51868  53.2179  44.0540 0001153  78.2050 116.5641 15.73225508  4406,6727.821999999999,91.532,350.463,348.912,0.0
51868.0,STARLINK-3578,PAYLOAD,2022-03-23 22:00:00,15.732192499999998,0.0001149,53.2181,43.642,79.0548,227.9536,3.9781e-06,-6.1e-07,0.0,0 STARLINK-3578,1 51868U 22022S   22082.91667824 -.00000061  00000-0  39781-5 0  9994,2 51868  53.2181  43.6420 0001149  79.0548 227.9536 15.73219250  3717,6727.84,91.532,350.478,348.932,0.0
51868.0,STARLINK-3578,PAYLOAD,2022-03-24 14:00:01,15.73218539,0.0001102,53.2181,40.3437,72.0219,52.8712,-0.00048793,-0.00068594,0.0,0 STARLINK-3578,1 51868U 22022S   22083.58334491 -.00068594  00000-0 -48793-3 0  9996,2 51868  53.2181  40.3437 0001102  72.0219  52.8712 15.73218539  3693,6727.842,91.532,350.449,348.966,0.0
51868.0,STARLINK-3578,PAYLOAD,2022-03-24 22:00:00,15.73180125,0.0001017,53.2184,38.6937,79.9673,133.8367,0.00038898,0.00054277,0.0,0 STARLINK-3578,1 51868U 22022S   22083.91667824  .00054277  00000-0  38898-3 0  9998,2 51868  53.2184  38.6937 0001017  79.9673 133.8367 15.73180125  4579,6727.9519999999975,91.534,350.501,349.1330000000001,0.0
51868.0,STARLINK-3578,PAYLOAD,2022-03-25 06:00:00,15.73195719,0.0001061,53.2185,37.0463,63.0212,239.7013,-0.0001357,-0.00019616,0.0,0 STARLINK-3578,1 51868U 22022S   22084.25001157 -.00019616  00000-0 -13570-3 0  9997,2 51868  53.2185  37.0463 0001061  63.0212 239.7013 15.73195719  4624,6727.906999999997,91.533,350.486,349.059,0.0
51868.0,STARLINK-3578,PAYLOAD,2022-03-25 14:00:01,15.73211708,8.85e-05,53.2181,35.3953,70.5946,321.0375,-0.00032435,-0.00045913,0.0,0 STARLINK-3578,1 51868U 22022S   22084.58334491 -.00045913  00000-0 -32435-3 0  9993,2 51868  53.2181  35.3953 0000885  70.5946 321.0375 15.73211708  3694,6727.861999999999,91.532,350.32199999999995,349.131,0.0
51868.0,STARLINK-3578,PAYLOAD,2022-03-25 20:00:01,15.731645,0.0001005,53.2181,34.1575,82.7258,285.6074,0.00033782,0.00046984,0.0,0 STARLINK-3578,1 51868U 22022S   22084.83334491  .00046984  00000-0  33782-3 0  9994,2 51868  53.2181  34.1575 0001005  82.7258 285.6074 15.73164500  4719,6727.996,91.535,350.538,349.185,0.0
51868.0,STARLINK-3578,PAYLOAD,2022-03-25 22:00:01,15.73171342,0.0001046,53.2183,33.7451,80.2411,40.3819,0.00032647,0.00045389,0.0,0 STARLINK-3578,1 51868U 22022S   22084.91668981  .00045389  00000-0  32647-3 0  9994,2 51868  53.2183  33.7451 0001046  80.2411  40.3819 15.73171342  3745,6727.977,91.535,350.546,349.13800000000015,0.0
51868.0,STARLINK-3578,PAYLOAD,2022-03-26 14:00:01,15.73233414,0.0001147,53.218,30.4427,78.7811,219.6373,-0.00028805,-0.00040906,0.0,0 STARLINK-3578,1 51868U 22022S   22085.58334491 -.00040906  00000-0 -28805-3 0  9997,2 51868  53.2180  30.4427 0001147  78.7811 219.6373 15.73233414  3663,6727.8,91.531,350.43699999999984,348.89300000000014,0.0
51868.0,STARLINK-3578,PAYLOAD,2022-03-26 20:00:01,15.732953699999998,0.0001306,53.2177,29.2011,89.205,185.9243,-0.0034307,-0.0045863,0.0,0 STARLINK-3578,1 51868U 22022S   22085.83334491 -.00458630  00000-0 -34307-2 0  9995,2 51868  53.2177  29.2011 0001306  89.2050 185.9243 15.73295370  4877,6727.623000000001,91.528,350.367,348.61,0.0
51868.0,STARLINK-3578,PAYLOAD,2022-03-26 22:00:00,15.73036992,0.0001171,53.2178,28.788,95.0565,292.3622,-2.3572e-05,-3.902e-05,0.0,0 STARLINK-3578,1 51868U 22022S   22085.91667824 -.00003902  00000-0 -23572-4 0  9995,2 51868  53.2178  28.7880 0001171  95.0565 292.3622 15.73036992  3711,6728.36,91.543,351.01300000000015,349.43699999999984,0.0
51868.0,STARLINK-3578,PAYLOAD,2022-03-27 06:00:00,15.73171045,0.0001167,53.2186,27.1493,70.4786,45.8656,0.00060695,0.00085324,0.0,0 STARLINK-3578,1 51868U 22022S   22086.25001157  .00085324  00000-0  60695-3 0  9996,2 51868  53.2186  27.1493 0001167  70.4786  45.8656 15.73171045  4932,6727.978,91.535,350.62800000000016,349.05800000000005,0.0
51868.0,STARLINK-3578,PAYLOAD,2022-03-27 14:00:01,15.73241764,0.0001146,53.2184,25.4979,80.2896,125.0125,-0.00026238,-0.00037345,0.0,0 STARLINK-3578,1 51868U 22022S   22086.58334491 -.00037345  00000-0 -26238-3 0  9999,2 51868  53.2184  25.4979 0001146  80.2896 125.0125 15.73241764  3700,6727.776,91.531,350.412,348.87,0.0
